start=new Date('2021-09-20T00:00:00.000Z').valueOf();
sats=[{"REV_AT_EPOCH":"2121","EPHEMERIS_TYPE":"0","CLASSIFICATION_TYPE":"U","TLE_LINE1":"1 48373U 21038W   21262.88571237  .00000845  00000-0  75614-4 0  9997","COUNTRY_CODE":"US","GP_ID":"185056199","MEAN_MOTION_DDOT":"0.0000000000000","DECAY_DATE":null,"MEAN_ANOMALY":"282.3118","NORAD_CAT_ID":"48373","OBJECT_TYPE":"PAYLOAD","SITE":"AFETR","SEMIMAJOR_AXIS":"6925.368","BSTAR":"0.00007561400000","RA_OF_ASC_NODE":"117.0609","RCS_SIZE":"LARGE","TLE_LINE2":"2 48373  53.0567 117.0609 0002094  77.8105 282.3118 15.06393765 21216","PERIAPSIS":"545.782","OBJECT_ID":"2021-038W","OBJECT_NAME":"STARLINK-2609","MEAN_MOTION":"15.06393765","ECCENTRICITY":"0.00020940","INCLINATION":"53.0567","MEAN_ELEMENT_THEORY":"SGP4","CENTER_NAME":"EARTH","ARG_OF_PERICENTER":"77.8105","ELEMENT_SET_NO":"999","REF_FRAME":"TEME","MEAN_MOTION_DOT":"0.00000845","APOAPSIS":"548.683","LAUNCH_DATE":"2021-05-04","FILE":"3120378","TIME_SYSTEM":"UTC","PERIOD":"95.593","EPOCH":"2021-09-19T21:15:25.548768"},{"NORAD_CAT_ID":"48374","OBJECT_TYPE":"PAYLOAD","MEAN_MOTION_DDOT":"0.0000000000000","GP_ID":"185056947","DECAY_DATE":null,"MEAN_ANOMALY":"279.5464","OBJECT_NAME":"STARLINK-2604","SITE":"AFETR","SEMIMAJOR_AXIS":"6925.353","BSTAR":"0.00000492840000","RA_OF_ASC_NODE":"117.0730","RCS_SIZE":"LARGE","TLE_LINE2":"2 48374  53.0551 117.0730 0002091  80.5761 279.5464 15.06398690 21215","OBJECT_ID":"2021-038X","PERIAPSIS":"545.769","CLASSIFICATION_TYPE":"U","REV_AT_EPOCH":"2121","EPHEMERIS_TYPE":"0","COUNTRY_CODE":"US","TLE_LINE1":"1 48374U 21038X   21262.88203183 -.00000208  00000-0  49284-5 0  9999","LAUNCH_DATE":"2021-05-04","FILE":"3120378","REF_FRAME":"TEME","MEAN_MOTION_DOT":"-0.00000208","APOAPSIS":"548.666","TIME_SYSTEM":"UTC","PERIOD":"95.592","EPOCH":"2021-09-19T21:10:07.550112","ECCENTRICITY":"0.00020910","INCLINATION":"53.0551","MEAN_ELEMENT_THEORY":"SGP4","MEAN_MOTION":"15.06398690","ELEMENT_SET_NO":"999","CENTER_NAME":"EARTH","ARG_OF_PERICENTER":"80.5761"},{"OBJECT_TYPE":"PAYLOAD","NORAD_CAT_ID":"48375","MEAN_MOTION_DDOT":"0.0000000000000","GP_ID":"185057695","DECAY_DATE":null,"MEAN_ANOMALY":"282.9872","OBJECT_NAME":"STARLINK-2603","SITE":"AFETR","BSTAR":"0.00006808200000","SEMIMAJOR_AXIS":"6925.346","RA_OF_ASC_NODE":"117.0941","RCS_SIZE":"LARGE","TLE_LINE2":"2 48375  53.0559 117.0941 0002301  77.1374 282.9872 15.06400805 21217","PERIAPSIS":"545.618","OBJECT_ID":"2021-038Y","CLASSIFICATION_TYPE":"U","REV_AT_EPOCH":"2121","EPHEMERIS_TYPE":"0","COUNTRY_CODE":"US","TLE_LINE1":"1 48375U 21038Y   21262.87835003  .00000732  00000-0  68082-4 0  9998","LAUNCH_DATE":"2021-05-04","FILE":"3120378","REF_FRAME":"TEME","MEAN_MOTION_DOT":"0.00000732","APOAPSIS":"548.805","TIME_SYSTEM":"UTC","PERIOD":"95.592","EPOCH":"2021-09-19T21:04:49.442592","ECCENTRICITY":"0.00023010","INCLINATION":"53.0559","MEAN_ELEMENT_THEORY":"SGP4","MEAN_MOTION":"15.06400805","ELEMENT_SET_NO":"999","CENTER_NAME":"EARTH","ARG_OF_PERICENTER":"77.1374"},{"LAUNCH_DATE":"2021-05-04","FILE":"3120378","REF_FRAME":"TEME","MEAN_MOTION_DOT":"0.00000712","APOAPSIS":"548.600","TIME_SYSTEM":"UTC","PERIOD":"95.592","EPOCH":"2021-09-19T20:59:31.643520","ECCENTRICITY":"0.00019820","INCLINATION":"53.0566","MEAN_ELEMENT_THEORY":"SGP4","MEAN_MOTION":"15.06395499","ELEMENT_SET_NO":"999","CENTER_NAME":"EARTH","ARG_OF_PERICENTER":"80.8003","OBJECT_TYPE":"PAYLOAD","NORAD_CAT_ID":"48376","MEAN_MOTION_DDOT":"0.0000000000000","GP_ID":"185057949","DECAY_DATE":null,"MEAN_ANOMALY":"279.3210","OBJECT_NAME":"STARLINK-2610","SITE":"AFETR","SEMIMAJOR_AXIS":"6925.362","RA_OF_ASC_NODE":"117.1095","BSTAR":"0.00006668100000","RCS_SIZE":"LARGE","TLE_LINE2":"2 48376  53.0566 117.1095 0001982  80.8003 279.3210 15.06395499 21219","OBJECT_ID":"2021-038Z","PERIAPSIS":"545.855","CLASSIFICATION_TYPE":"U","REV_AT_EPOCH":"2121","EPHEMERIS_TYPE":"0","COUNTRY_CODE":"US","TLE_LINE1":"1 48376U 21038Z   21262.87467180  .00000712  00000-0  66681-4 0  9997"},{"OBJECT_NAME":"STARLINK-2499","SEMIMAJOR_AXIS":"6925.333","SITE":"AFETR","RA_OF_ASC_NODE":"117.1297","BSTAR":"0.00002728700000","PERIAPSIS":"545.569","OBJECT_ID":"2021-038AA","TLE_LINE2":"2 48377  53.0548 117.1297 0002353  83.0717 277.0540 15.06404985 21216","RCS_SIZE":"LARGE","NORAD_CAT_ID":"48377","OBJECT_TYPE":"PAYLOAD","DECAY_DATE":null,"MEAN_MOTION_DDOT":"0.0000000000000","GP_ID":"185056699","MEAN_ANOMALY":"277.0540","COUNTRY_CODE":"US","TLE_LINE1":"1 48377U 21038AA  21262.87096963  .00000125  00000-0  27287-4 0  9992","CLASSIFICATION_TYPE":"U","REV_AT_EPOCH":"2121","EPHEMERIS_TYPE":"0","TIME_SYSTEM":"UTC","EPOCH":"2021-09-19T20:54:11.776032","PERIOD":"95.592","LAUNCH_DATE":"2021-05-04","FILE":"3120378","MEAN_MOTION_DOT":"0.00000125","REF_FRAME":"TEME","APOAPSIS":"548.828","ELEMENT_SET_NO":"999","ARG_OF_PERICENTER":"83.0717","CENTER_NAME":"EARTH","ECCENTRICITY":"0.00023530","MEAN_ELEMENT_THEORY":"SGP4","INCLINATION":"53.0548","MEAN_MOTION":"15.06404985"},{"MEAN_MOTION":"15.06399294","INCLINATION":"53.0556","MEAN_ELEMENT_THEORY":"SGP4","ECCENTRICITY":"0.00021150","CENTER_NAME":"EARTH","ARG_OF_PERICENTER":"83.8457","ELEMENT_SET_NO":"999","APOAPSIS":"548.680","REF_FRAME":"TEME","MEAN_MOTION_DOT":"0.00001242","FILE":"3120378","LAUNCH_DATE":"2021-05-04","PERIOD":"95.592","EPOCH":"2021-09-19T20:48:53.887968","TIME_SYSTEM":"UTC","EPHEMERIS_TYPE":"0","REV_AT_EPOCH":"2121","CLASSIFICATION_TYPE":"U","TLE_LINE1":"1 48378U 21038AB  21262.86729037  .00001242  00000-0  10231-3 0  9998","COUNTRY_CODE":"US","MEAN_ANOMALY":"276.2773","GP_ID":"185057447","MEAN_MOTION_DDOT":"0.0000000000000","DECAY_DATE":null,"OBJECT_TYPE":"PAYLOAD","NORAD_CAT_ID":"48378","TLE_LINE2":"2 48378  53.0556 117.1505 0002115  83.8457 276.2773 15.06399294 21218","RCS_SIZE":"LARGE","PERIAPSIS":"545.751","OBJECT_ID":"2021-038AB","RA_OF_ASC_NODE":"117.1505","SITE":"AFETR","SEMIMAJOR_AXIS":"6925.351","BSTAR":"0.00010231000000","OBJECT_NAME":"STARLINK-2526"},{"MEAN_MOTION":"15.06392560","MEAN_ELEMENT_THEORY":"SGP4","INCLINATION":"53.0561","ECCENTRICITY":"0.00019780","CENTER_NAME":"EARTH","ARG_OF_PERICENTER":"84.7402","ELEMENT_SET_NO":"999","APOAPSIS":"548.606","MEAN_MOTION_DOT":"0.00000538","REF_FRAME":"TEME","FILE":"3120378","LAUNCH_DATE":"2021-05-04","EPOCH":"2021-09-19T20:43:35.550624","PERIOD":"95.593","TIME_SYSTEM":"UTC","EPHEMERIS_TYPE":"0","REV_AT_EPOCH":"2121","CLASSIFICATION_TYPE":"U","TLE_LINE1":"1 48379U 21038AC  21262.86360591  .00000538  00000-0  55013-4 0  9990","COUNTRY_CODE":"US","MEAN_ANOMALY":"275.3812","DECAY_DATE":null,"GP_ID":"185057196","MEAN_MOTION_DDOT":"0.0000000000000","NORAD_CAT_ID":"48379","OBJECT_TYPE":"PAYLOAD","PERIAPSIS":"545.867","OBJECT_ID":"2021-038AC","TLE_LINE2":"2 48379  53.0561 117.1705 0001978  84.7402 275.3812 15.06392560 21216","RCS_SIZE":"LARGE","SITE":"AFETR","SEMIMAJOR_AXIS":"6925.371","BSTAR":"0.00005501300000","RA_OF_ASC_NODE":"117.1705","OBJECT_NAME":"STARLINK-2612"},{"GP_ID":"185058263","MEAN_MOTION_DDOT":"0.0000000000000","DECAY_DATE":null,"MEAN_ANOMALY":"275.0470","OBJECT_TYPE":"PAYLOAD","NORAD_CAT_ID":"48380","SITE":"AFETR","BSTAR":"0.00006739800000","SEMIMAJOR_AXIS":"6925.364","RA_OF_ASC_NODE":"117.0465","RCS_SIZE":"LARGE","TLE_LINE2":"2 48380  53.0552 117.0465 0002073  85.0755 275.0470 15.06395083 21212","PERIAPSIS":"545.793","OBJECT_ID":"2021-038AD","OBJECT_NAME":"STARLINK-2614","REV_AT_EPOCH":"2121","EPHEMERIS_TYPE":"0","CLASSIFICATION_TYPE":"U","TLE_LINE1":"1 48380U 21038AD  21262.88846726  .00000722  00000-0  67398-4 0  9997","COUNTRY_CODE":"US","REF_FRAME":"TEME","MEAN_MOTION_DOT":"0.00000722","APOAPSIS":"548.664","LAUNCH_DATE":"2021-05-04","FILE":"3120378","TIME_SYSTEM":"UTC","PERIOD":"95.592","EPOCH":"2021-09-19T21:19:23.571264","MEAN_MOTION":"15.06395083","ECCENTRICITY":"0.00020730","INCLINATION":"53.0552","MEAN_ELEMENT_THEORY":"SGP4","CENTER_NAME":"EARTH","ARG_OF_PERICENTER":"85.0755","ELEMENT_SET_NO":"999"},{"REF_FRAME":"TEME","MEAN_MOTION_DOT":"0.00001203","APOAPSIS":"548.721","LAUNCH_DATE":"2021-05-04","FILE":"3120378","TIME_SYSTEM":"UTC","PERIOD":"95.592","EPOCH":"2021-09-19T20:38:16.423584","MEAN_MOTION":"15.06399074","ECCENTRICITY":"0.00021730","INCLINATION":"53.0574","MEAN_ELEMENT_THEORY":"SGP4","CENTER_NAME":"EARTH","ARG_OF_PERICENTER":"90.4958","ELEMENT_SET_NO":"999","MEAN_MOTION_DDOT":"0.0000000000000","GP_ID":"185058267","DECAY_DATE":null,"MEAN_ANOMALY":"269.6280","OBJECT_TYPE":"PAYLOAD","NORAD_CAT_ID":"48381","BSTAR":"0.00009967800000","SITE":"AFETR","SEMIMAJOR_AXIS":"6925.351","RA_OF_ASC_NODE":"117.1682","TLE_LINE2":"2 48381  53.0574 117.1682 0002173  90.4958 269.6280 15.06399074 21217","RCS_SIZE":"LARGE","PERIAPSIS":"545.712","OBJECT_ID":"2021-038AE","OBJECT_NAME":"STARLINK-2630","REV_AT_EPOCH":"2121","EPHEMERIS_TYPE":"0","CLASSIFICATION_TYPE":"U","TLE_LINE1":"1 48381U 21038AE  21262.85991231  .00001203  00000-0  99678-4 0  9998","COUNTRY_CODE":"US"},{"TIME_SYSTEM":"UTC","PERIOD":"95.593","EPOCH":"2021-09-19T20:32:58.917408","REF_FRAME":"TEME","MEAN_MOTION_DOT":"0.00000355","APOAPSIS":"548.590","LAUNCH_DATE":"2021-05-04","FILE":"3120378","ARG_OF_PERICENTER":"83.7397","CENTER_NAME":"EARTH","ELEMENT_SET_NO":"999","MEAN_MOTION":"15.06388769","ECCENTRICITY":"0.00019380","INCLINATION":"53.0548","MEAN_ELEMENT_THEORY":"SGP4","SEMIMAJOR_AXIS":"6925.383","SITE":"AFETR","RA_OF_ASC_NODE":"117.1946","BSTAR":"0.00004274900000","RCS_SIZE":"LARGE","TLE_LINE2":"2 48382  53.0548 117.1946 0001938  83.7397 276.3813 15.06388769 21218","PERIAPSIS":"545.906","OBJECT_ID":"2021-038AF","OBJECT_NAME":"STARLINK-2585","MEAN_MOTION_DDOT":"0.0000000000000","GP_ID":"185056948","DECAY_DATE":null,"MEAN_ANOMALY":"276.3813","OBJECT_TYPE":"PAYLOAD","NORAD_CAT_ID":"48382","TLE_LINE1":"1 48382U 21038AF  21262.85623747  .00000355  00000-0  42749-4 0  9997","COUNTRY_CODE":"US","REV_AT_EPOCH":"2121","EPHEMERIS_TYPE":"0","CLASSIFICATION_TYPE":"U"}];
